CZ-4B R/B               
1 28059U 03049C   25057.50484018  .00001444  00000+0  34578-3 0  9991
2 28059  98.6481  33.6760 0047550 300.7225  58.9291 14.54501097131901
CZ-2C R/B               
1 28222U 04012C   25057.52159364  .00032877  00000+0  85371-3 0  9990
2 28222  97.7827  89.7353 0025433 230.3578 129.5422 15.38569944146031
SL-16 R/B               
1 28353U 04021B   25057.39824718 -.00000043  00000+0  26192-5 0  9991
2 28353  71.0017 302.1267 0007554 257.8247 102.2029 14.14525933 69622
CZ-4B R/B               
1 28415U 04035C   25057.52618964  .00013609  00000+0  58910-3 0  9996
2 28415  97.3944  92.2038 0036801 213.8440 146.0447 15.21913396122564
CZ-2C R/B               
1 28480U 04046B   25057.55308132  .00000358  00000+0  14863-3 0  9992
2 28480  98.1885 351.1288 0139698 186.6401 173.2934 14.26734803 54863
ARIANE 5 R/B            
1 28499U 04049H   25057.64305843  .00003693  00000+0  42066-3 0  9992
2 28499  98.2149 208.3540 0086858 129.0414 231.8571 14.84106020 89993
CZ-2D R/B               
1 28738U 05024B   25057.52795254  .00032098  00000+0  85225-3 0  9993
2 28738  97.3699  60.6052 0005187 336.5693  23.5315 15.38208571 81590
ALOS (DAICHI)           
1 28931U 06002A   25057.58409816  .00005016  00000+0  88276-3 0  9996
2 28931  98.0716  12.0941 0002430  73.9984 286.1488 14.68023906 18265
H-2A R/B                
1 28932U 06002B   25057.55124645  .00016234  00000+0  10005-2 0  9996
2 28932  98.1994 170.8011 0061955  74.8152 285.9915 15.08428970 37583
RESURS-DK 1             
1 29228U 06021A   25057.49708387  .00005678  00000+0  35443-3 0  9994
2 29228  69.9348 128.1553 0006798 314.2286  45.8320 15.10030422 30682
GENESIS 1               
1 29252U 06029A   25057.57411454  .00114527  00000+0  11309-2 0  9992
2 29252  64.5068  13.3050 0031734 298.1392  61.6548 15.64667651 30005
CZ-4B R/B               
1 29507U 06046C   25057.37328581  .00010362  00000+0  59230-3 0  9998
2 29507  97.6119  98.3000 0038136 125.6274 234.8518 15.12252814  3089
CZ-2C R/B               
1 31114U 07010B   25057.63889705  .00000382  00000+0  19564-3 0  9993
2 31114  98.3613 185.3939 0058223 308.5343  51.0624 14.20057072926346
COSMO-SKYMED 1          
1 31598U 07023A   25057.58316090  .00001665  00000+0  21577-3 0  9991
2 31598  97.8906 243.0769 0001449  83.7337 276.4041 14.82136831958808
GENESIS 2               
1 31789U 07028A   25057.56343730  .00080128  00000+0  99950-3 0  9998
2 31789  64.4802  61.9399 0015106 321.0424  38.9629 15.59293713976756
COSMOS 2428             
1 31792U 07029A   25057.31373298 -.00000073  00000+0 -13493-4 0  9990
2 31792  70.9407 273.4211 0003759  22.8900 337.2388 14.12851559910933
SL-16 R/B               
1 31793U 07029B   25057.23596170  .00000455  00000+0  26075-3 0  9999
2 31793  70.9729 243.6689 0002339 255.6078 277.4394 14.14748766912126
KORONAS-FOTON           
1 33504U 09003A   25057.17930245  .00012787  00000+0  38922-3 0  9998
2 33504  82.4349 304.3167 0014529  64.0420 296.2317 15.33766737887852
CZ-2C R/B               
1 37731U 11030B   25057.64628928  .00003518  00000+0  46380-3 0  9990
2 37731  97.8012  19.1545 0055376 132.5629  39.7260 14.79639619734454
H-2A R/B                
1 38341U 12025E   25057.55814679  .00007786  00000+0  75873-3 0  9993
2 38341  98.4299 351.7352 0049307 100.7525 259.9248 14.91869540692071
SHIJIAN-16 (SJ-16)      
1 39358U 13057A   25057.62259650  .00005557  00000+0  56560-3 0  9994
2 39358  74.9741 176.2090 0017836 304.2098  55.7399 14.90806368615430
SL-4 R/B                
1 39679U 14021B   25057.23785293  .00017602  00000+0  51810-3 0  9993
2 39679  51.6120 358.2202 0120574 181.3341 178.7334 15.28199010598509
ALOS-2                  
1 39766U 14029A   25057.54499059  .00005592  00000+0  75506-3 0  9997
2 39766  97.9206 156.5442 0001598 101.0801 259.0591 14.79471779581255
YAOGAN-29               
1 41038U 15069A   25057.57140394  .00001386  00000+0  17970-3 0  9993
2 41038  98.0443  79.4274 0002755 112.0794 248.0711 14.82430445500140
ASTRO-H (HITOMI)        
1 41337U 16012A   25057.61460054  .00006711  00000+0  43069-3 0  9992
2 41337  30.9991 258.0606 0009818 156.5359 203.5727 15.07031864495399
HXMT (HUIYAN)           
1 42758U 17034A   25056.41888209  .00020170  00000+0  87118-3 0  9996
2 42758  43.0133 305.6867 0012656 286.8373  73.1088 15.22073155425328
CZ-2C R/B               
1 43521U 18054D   25057.33039739  .00045216  00000+0  93198-3 0  9999
2 43521  35.1410 290.5394 0043249 299.4717  60.1696 15.43810948369957
SAOCOM 1A               
1 43641U 18076A   25057.59169687  .00001443  00000+0  18780-3 0  9998
2 43641  97.8883 246.1536 0001397  87.0548 273.0825 14.82152095345659
H-2A R/B                
1 43682U 18084L   25057.34096241  .00030648  00000+0  11770-2 0  9990
2 43682  98.8591 194.5941 0035994 235.4817 124.3016 15.25795236348106
SAOCOM 1B               
1 46265U 20059A   25057.55546269  .00001457  00000+0  18956-3 0  9998
2 46265  97.8890 245.2227 0001364  87.1899 272.9470 14.82150722243031
CSS (TIANHE)            
1 48274U 21035A   25057.45757785  .00050860  00000+0  59859-3 0  9990
2 48274  41.4671 334.9194 0007103 249.2092 110.7986 15.60534915218846
COSMOS 2550             
1 48865U 21056A   25057.59568682 -.00000151  00000+0  12382-5 0  9991
2 48865  67.1410  98.6731 0008331 270.6844  89.3356 15.33827146205788
CZ-2C R/B               
1 52794U 22058K   25057.37752584  .00030359  00000+0  83849-3 0  9998
2 52794  50.1941  63.0422 0064773  79.3178 281.5069 15.34645673152001
XRISM                   
1 57800U 23137A   25057.59890194  .00013364  00000+0  87798-3 0  9998
2 57800  31.0020 186.8700 0008114 219.6131 140.3913 15.06408680 80934
ACS3                    
1 59588U 24077B   25057.52757193  .00010639  00000+0  10909-1 0  9991
2 59588  97.4938  75.2638 0051212 162.9975 197.2911 13.75814841 42264
